{
  "norad_id": 60366,
  "name": "STARLINK-32230",
  "history": [
    {
      "epoch": "2026-03-28T16:29:18.839040Z",
      "apogee_km": 475.90337796658423,
      "perigee_km": 474.59026962594544,
      "latitude_deg": -2.3085688098936354e-05,
      "longitude_deg": 148.10978959738705,
      "height_km": 476.10491756943594,
      "semi_major_axis_km": 6853.383823796265,
      "eccentricity": 9.58e-05,
      "inclination_deg": 53.1609,
      "raan_deg": 221.5422,
      "arg_perigee_deg": 86.4633,
      "mean_anomaly_deg": 273.6477,
      "mean_motion_rev_day": 15.30189365
    }
  ]
}